NORAD_CAT_ID,OBJECT_NAME,OBJECT_TYPE,EPOCH,MEAN_MOTION,ECCENTRICITY,INCLINATION,RA_OF_ASC_NODE,ARG_OF_PERICENTER,MEAN_ANOMALY,BSTAR,MEAN_MOTION_DOT,MEAN_MOTION_DDOT,TLE_LINE0,TLE_LINE1,TLE_LINE2,SEMIMAJOR_AXIS,PERIOD,APOGEE,PERIGEE,DECAYED
55931.0,STARLINK-5897,PAYLOAD,2023-04-04 14:00:01,15.69899995,0.0003856,69.9961,130.9875,275.6106,189.06,0.00027245,0.00032645,0.0,0 STARLINK-5897,1 55931U 23037T   23094.58334491  .00032645  00000-0  27245-3 0  9996,2 55931  69.9961 130.9875 0003856 275.6106 189.0600 15.69899995  3329,6737.32,91.726,361.783,356.587,0.0
55931.0,STARLINK-5897,PAYLOAD,2023-04-04 22:00:00,15.69885354,0.0003881,69.997,130.0501,270.2059,277.7924,0.00072521,0.00087772,0.0,0 STARLINK-5897,1 55931U 23037T   23094.91667824  .00087772  00000-0  72521-3 0  9990,2 55931  69.9970 130.0501 0003881 270.2059 277.7924 15.69885354  1306,6737.362,91.726,361.842,356.612,0.0
55931.0,STARLINK-5897,PAYLOAD,2023-04-05 06:00:00,15.69943373,0.0003754,69.9978,129.1129,272.8726,358.4513,-0.00036615,-0.00044048,0.0,0 STARLINK-5897,1 55931U 23037T   23095.25001157 -.00044048  00000-0 -36615-3 0  9994,2 55931  69.9978 129.1129 0003754 272.8726 358.4513 15.69943373  3430,6737.196,91.723,361.59,356.532,0.0
55931.0,STARLINK-5897,PAYLOAD,2023-04-05 14:00:01,15.69939827,0.0003677,69.9983,128.1754,276.9862,77.6745,-0.0001409,-0.00017133,0.0,0 STARLINK-5897,1 55931U 23037T   23095.58334491 -.00017133  00000-0 -14090-3 0  9998,2 55931  69.9983 128.1754 0003677 276.9862  77.6745 15.69939827  1309,6737.206,91.723,361.548,356.594,0.0
55931.0,STARLINK-5897,PAYLOAD,2023-04-05 22:00:00,15.69862508,0.0003619,69.9982,127.2382,269.0749,168.9487,0.00092475,0.00112197,0.0,0 STARLINK-5897,1 55931U 23037T   23095.91667824  .00112197  00000-0  92475-3 0  9991,2 55931  69.9982 127.2382 0003619 269.0749 168.9487 15.69862508  1306,6737.427,91.728,361.731,356.854,0.0
55931.0,STARLINK-5897,PAYLOAD,2023-04-06 00:00:00,15.69891122,0.0003606,69.9983,127.004,268.2484,280.5936,0.00062591,0.00075629,0.0,0 STARLINK-5897,1 55931U 23037T   23096.00001157  .00075629  00000-0  62591-3 0  9997,2 55931  69.9983 127.0040 0003606 268.2484 280.5936 15.69891122  3541,6737.345,91.726,361.64,356.781,0.0
55931.0,STARLINK-5897,PAYLOAD,2023-04-06 10:00:00,15.698952,0.0003606,69.9993,125.8324,275.6295,107.3787,0.00047792,0.00057582,0.0,0 STARLINK-5897,1 55931U 23037T   23096.41667824  .00057582  00000-0  47792-3 0  9995,2 55931  69.9993 125.8324 0003606 275.6295 107.3787 15.69895200  3614,6737.334,91.726,361.628,356.769,0.0
55931.0,STARLINK-5897,PAYLOAD,2023-04-06 14:00:01,15.69943725,0.0003659,69.9992,125.3635,275.2149,329.5092,-0.00015454,-0.0001877,0.0,0 STARLINK-5897,1 55931U 23037T   23096.58335648 -.00018770  00000-0 -15454-3 0  9997,2 55931  69.9992 125.3635 0003659 275.2149 329.5092 15.69943725  1302,6737.195,91.723,361.525,356.595,0.0
55931.0,STARLINK-5897,PAYLOAD,2023-04-06 22:00:00,15.69881073,0.0003542,69.9994,124.4265,266.5724,61.4562,0.00061569,0.00074347,0.0,0 STARLINK-5897,1 55931U 23037T   23096.91667824  .00074347  00000-0  61569-3 0  9996,2 55931  69.9994 124.4265 0003542 266.5724  61.4562 15.69881073  3691,6737.374,91.727,361.626,356.853,0.0
55931.0,STARLINK-5897,PAYLOAD,2023-04-07 14:00:01,15.6995188,0.0003365,69.9992,122.5521,270.2319,224.4211,-0.00024646,-0.00029777,0.0,0 STARLINK-5897,1 55931U 23037T   23097.58334491 -.00029777  00000-0 -24646-3 0  9995,2 55931  69.9992 122.5521 0003365 270.2319 224.4211 15.69951880  3795,6737.172,91.723,361.304,356.77,0.0
55931.0,STARLINK-5897,PAYLOAD,2023-04-08 10:50:14,15.69927461,0.0003681,69.9989,120.1116,266.4785,93.599,2.868e-05,3.238e-05,0.0,0 STARLINK-5897,1 55931U 23037T   23098.45155741  .00003238  00000-0  28680-4 0  9996,2 55931  69.9989 120.1116 0003681 266.4785  93.5990 15.69927461  3933,6737.242,91.724,361.587,356.627,0.0
55931.0,STARLINK-5897,PAYLOAD,2023-04-09 11:18:16,15.69926727,0.0003379,69.9993,117.2459,264.5602,95.5208,1.8165e-05,1.972e-05,0.0,0 STARLINK-5897,1 55931U 23037T   23099.47102498  .00001972  00000-0  18165-4 0  9990,2 55931  69.9993 117.2459 0003379 264.5602  95.5208 15.69926727  3754,6737.244,91.724,361.385,356.832,0.0
55931.0,STARLINK-5897,PAYLOAD,2023-04-09 12:50:01,15.69925984,0.0003397,69.9991,117.0669,264.7719,95.3089,2.0247e-05,2.223e-05,0.0,0 STARLINK-5897,1 55931U 23037T   23099.53474269  .00002223  00000-0  20247-4 0  9999,2 55931  69.9991 117.0669 0003397 264.7719  95.3089 15.69925984  4103,6737.246,91.724,361.399,356.822,0.0
55931.0,STARLINK-5897,PAYLOAD,2023-04-10 13:18:03,15.69925459,0.0003496,69.999,114.1995,263.6616,96.4182,1.3751e-05,1.441e-05,0.0,0 STARLINK-5897,1 55931U 23037T   23100.55420937  .00001441  00000-0  13751-4 0  9990,2 55931  69.9990 114.1995 0003496 263.6616  96.4182 15.69925459  4266,6737.247,91.724,361.468,356.757,0.0
55931.0,STARLINK-5897,PAYLOAD,2023-04-10 17:53:18,15.69932115,0.0003453,69.999,113.6633,267.4463,92.6337,1.8754e-05,2.043e-05,0.0,0 STARLINK-5897,1 55931U 23037T   23100.74535572  .00002043  00000-0  18754-4 0  9990,2 55931  69.9990 113.6633 0003453 267.4463  92.6337 15.69932115  3956,6737.228,91.724,361.42,356.767,0.0
55931.0,STARLINK-5897,PAYLOAD,2023-04-11 03:03:50,15.69916472,0.0003784,69.9993,112.5879,264.5974,95.479,-4.6899e-06,-7.77e-06,0.0,0 STARLINK-5897,1 55931U 23037T   23101.12766329 -.00000777  00000-0 -46899-5 0  9995,2 55931  69.9993 112.5879 0003784 264.5974  95.4790 15.69916472  4358,6737.273,91.725,361.687,356.589,0.0
55931.0,STARLINK-5897,PAYLOAD,2023-04-11 12:14:24,15.69829113,0.000314,69.9988,111.5122,277.7907,82.2932,-0.00017657,-0.00021306,0.0,0 STARLINK-5897,1 55931U 23037T   23101.51001132 -.00021306  00000-0 -17657-3 0  9991,2 55931  69.9988 111.5122 0003140 277.7907  82.2932 15.69829113  4414,6737.523,91.73,361.503,357.272,0.0
55931.0,STARLINK-5897,PAYLOAD,2023-04-11 18:21:27,15.6981978,0.0002491,70.0003,110.7972,294.2945,65.7991,-0.00018992,-0.00022884,0.0,0 STARLINK-5897,1 55931U 23037T   23101.76489810 -.00022884  00000-0 -18992-3 0  9996,2 55931  70.0003 110.7972 0002491 294.2945  65.7991 15.69819780  4110,6737.55,91.73,361.093,357.736,0.0
55931.0,STARLINK-5897,PAYLOAD,2023-04-13 04:02:59,15.67601629,0.0004637,70.0005,106.8638,293.9696,66.1013,-0.0031849,-0.00334941,0.0,0 STARLINK-5897,1 55931U 23037T   23103.16874295 -.00334941  00000-0 -31849-2 0  9992,2 55931  70.0005 106.8638 0004637 293.9696  66.1013 15.67601629  4333,6743.904,91.86,368.896,362.642,0.0
55931.0,STARLINK-5897,PAYLOAD,2023-04-14 14:00:01,15.6365741,0.0003584,70.0,102.9137,272.7712,135.6019,-0.011244,-0.00952906,0.0,0 STARLINK-5897,1 55931U 23037T   23104.58335648 -.00952906  00000-0 -11244-1 0  9996,2 55931  70.0000 102.9137 0003584 272.7712 135.6019 15.63657410  1300,6755.24,92.092,379.526,374.684,0.0
55931.0,STARLINK-5897,PAYLOAD,2023-04-14 18:00:00,15.63278542,0.0003482,70.0002,102.4497,266.4814,359.6408,-0.010317,-0.00868936,0.0,0 STARLINK-5897,1 55931U 23037T   23104.75001157 -.00868936  00000-0 -10317-1 0  9999,2 55931  70.0002 102.4497 0003482 266.4814 359.6408 15.63278542  4922,6756.331,92.114,380.549,375.844,0.0
55931.0,STARLINK-5897,PAYLOAD,2023-04-15 08:00:01,15.62134634,0.0003573,69.9998,100.8272,272.5479,34.3186,-0.010618,-0.00856248,0.0,0 STARLINK-5897,1 55931U 23037T   23105.33334491 -.00856248  00000-0 -10618-1 0  9991,2 55931  69.9998 100.8272 0003573 272.5479  34.3186 15.62134634  5015,6759.629,92.182,383.909,379.079,0.0
55931.0,STARLINK-5897,PAYLOAD,2023-04-15 14:00:01,15.61713633,0.0003471,69.9994,100.1325,270.8408,1.3086,-0.012477,-0.00977219,0.0,0 STARLINK-5897,1 55931U 23037T   23105.58334491 -.00977219  00000-0 -12477-1 0  9995,2 55931  69.9994 100.1325 0003471 270.8408   1.3086 15.61713633  1305,6760.844,92.206,385.056,380.362,0.0
55931.0,STARLINK-5897,PAYLOAD,2023-04-15 22:00:01,15.6102869,0.0003533,69.9996,99.2071,265.7188,79.5507,-0.011774,-0.00904904,0.0,0 STARLINK-5897,1 55931U 23037T   23105.91668981 -.00904904  00000-0 -11774-1 0  9996,2 55931  69.9996  99.2071 0003533 265.7188  79.5507 15.61028690  1307,6762.821,92.247,387.076,382.297,0.0
55931.0,STARLINK-5897,PAYLOAD,2023-04-16 00:00:00,15.60897238,0.0003406,69.9999,98.9758,267.1213,186.2152,-0.012631,-0.00960162,0.0,0 STARLINK-5897,1 55931U 23037T   23106.00001157 -.00960162  00000-0 -12631-1 0  9994,2 55931  69.9999  98.9758 0003406 267.1213 186.2152 15.60897238  5118,6763.201,92.255,387.37,382.763,0.0
55931.0,STARLINK-5897,PAYLOAD,2023-04-16 10:00:00,15.60038477,0.0003368,69.9998,97.8206,270.4859,2.8319,-0.012029,-0.00891141,0.0,0 STARLINK-5897,1 55931U 23037T   23106.41667824 -.00891141  00000-0 -12029-1 0  9999,2 55931  69.9998  97.8206 0003368 270.4859   2.8319 15.60038477  1300,6765.683,92.305,389.827,385.269,0.0
55931.0,STARLINK-5897,PAYLOAD,2023-04-16 22:00:00,15.59077562,0.0003218,69.9994,96.4364,264.387,295.2708,-0.012832,-0.00914075,0.0,0 STARLINK-5897,1 55931U 23037T   23106.91667824 -.00914075  00000-0 -12832-1 0  9998,2 55931  69.9994  96.4364 0003218 264.3870 295.2708 15.59077562  1301,6768.463,92.362,392.506,388.149,0.0
55931.0,STARLINK-5897,PAYLOAD,2023-04-17 06:00:00,15.58383844,0.0003283,69.9992,95.5147,272.2025,357.3964,-0.01237,-0.00862957,0.0,0 STARLINK-5897,1 55931U 23037T   23107.25001157 -.00862957  00000-0 -12370-1 0  9995,2 55931  69.9992  95.5147 0003283 272.2025 357.3964 15.58383844  5311,6770.471,92.403,394.559,390.113,0.0
55931.0,STARLINK-5897,PAYLOAD,2023-04-17 14:00:01,15.57779778,0.000334,69.9991,94.5937,273.0543,65.6689,-0.014006,-0.00946592,0.0,0 STARLINK-5897,1 55931U 23037T   23107.58334491 -.00946592  00000-0 -14006-1 0  9997,2 55931  69.9991  94.5937 0003340 273.0543  65.6689 15.57779778  1306,6772.221,92.439,396.348,391.824,0.0
55931.0,STARLINK-5897,PAYLOAD,2023-04-17 22:00:00,15.57126444,0.0003352,69.9995,93.6739,268.7065,138.3666,-0.013984,-0.00924378,0.0,0 STARLINK-5897,1 55931U 23037T   23107.91667824 -.00924378  00000-0 -13984-1 0  9995,2 55931  69.9995  93.6739 0003352 268.7065 138.3666 15.57126444  5418,6774.115,92.478,398.251,393.71,0.0
